{
  "type": "FeatureCollection",
  "features": [
    {
      "type": "Feature",
      "properties": {
        "norad_id": 37562,
        "name": "IRIDIUM 33 DEB",
        "group": "iridium-33-debris",
        "lat": -84.62195207024011,
        "lon": -95.83530256495268,
        "alt_km": 730.5717513595637,
        "timestamp": "2025-12-16T19:34:24.653773+00:00",
        "meta_object_name": "IRIDIUM 33 DEB",
        "meta_object_id": "1997-051XX",
        "meta_epoch": "2025-12-12T22:34:29.180064",
        "meta_mean_motion": 14.56479735,
        "meta_eccentricity": 0.00267072,
        "meta_inclination": 86.3742,
        "meta_ra_of_asc_node": 43.5127,
        "meta_arg_of_pericenter": 107.2211,
        "meta_mean_anomaly": 13.868,
        "meta_ephemeris_type": 0,
        "meta_classification_type": "U",
        "meta_norad_cat_id": 37562,
        "meta_element_set_no": 999,
        "meta_rev_at_epoch": 86331,
        "meta_bstar": 0.0015437368,
        "meta_mean_motion_dot": 6.916e-05,
        "meta_mean_motion_ddot": 0,
        "tle_line1": "1 37562U 97051XX  25346.94061551  .00006916  00000+0  15437-2 0  9999",
        "tle_line2": "2 37562  86.3742  43.5127 0026707 107.2211  13.8680 14.56479735863311"
      },
      "geometry": {
        "type": "Point",
        "coordinates": [
          -95.83530256495268,
          -84.62195207024011
        ]
      }
    },
    {
      "type": "Feature",
      "properties": {
        "norad_id": 37565,
        "name": "IRIDIUM 33 DEB",
        "group": "iridium-33-debris",
        "lat": -26.465206779737233,
        "lon": 5.982091316395353,
        "alt_km": 727.9883077664745,
        "timestamp": "2025-12-16T19:34:24.653783+00:00",
        "meta_object_name": "IRIDIUM 33 DEB",
        "meta_object_id": "1997-051YA",
        "meta_epoch": "2025-12-15T18:52:41.227392",
        "meta_mean_motion": 14.51530597,
        "meta_eccentricity": 0.00151766,
        "meta_inclination": 86.3497,
        "meta_ra_of_asc_node": 8.2513,
        "meta_arg_of_pericenter": 75.3949,
        "meta_mean_anomaly": 284.8938,
        "meta_ephemeris_type": 0,
        "meta_classification_type": "U",
        "meta_norad_cat_id": 37565,
        "meta_element_set_no": 999,
        "meta_rev_at_epoch": 65881,
        "meta_bstar": 0.00037505789,
        "meta_mean_motion_dot": 1.522e-05,
        "meta_mean_motion_ddot": 0,
        "tle_line1": "1 37565U 97051YA  25349.78658828  .00001522  00000+0  37506-3 0  9996",
        "tle_line2": "2 37565  86.3497   8.2513 0015176  75.3949 284.8938 14.51530597658811"
      },
      "geometry": {
        "type": "Point",
        "coordinates": [
          5.982091316395353,
          -26.465206779737233
        ]
      }
    },
    {
      "type": "Feature",
      "properties": {
        "norad_id": 38017,
        "name": "IRIDIUM 33 DEB",
        "group": "iridium-33-debris",
        "lat": 25.211419379826825,
        "lon": 166.1812111544155,
        "alt_km": 698.5584998093409,
        "timestamp": "2025-12-16T19:34:24.653794+00:00",
        "meta_object_name": "IRIDIUM 33 DEB",
        "meta_object_id": "1997-051YD",
        "meta_epoch": "2025-12-15T05:20:28.842720",
        "meta_mean_motion": 14.49104048,
        "meta_eccentricity": 0.00921394,
        "meta_inclination": 86.3417,
        "meta_ra_of_asc_node": 165.1477,
        "meta_arg_of_pericenter": 94.6566,
        "meta_mean_anomaly": 266.5169,
        "meta_ephemeris_type": 0,
        "meta_classification_type": "U",
        "meta_norad_cat_id": 38017,
        "meta_element_set_no": 999,
        "meta_rev_at_epoch": 61438,
        "meta_bstar": 0.0029139765,
        "meta_mean_motion_dot": 0.00011718,
        "meta_mean_motion_ddot": 0,
        "tle_line1": "1 38017U 97051YD  25349.22255605  .00011718  00000+0  29140-2 0  9996",
        "tle_line2": "2 38017  86.3417 165.1477 0092139  94.6566 266.5169 14.49104048614383"
      },
      "geometry": {
        "type": "Point",
        "coordinates": [
          166.1812111544155,
          25.211419379826825
        ]
      }
    },
    {
      "type": "Feature",
      "properties": {
        "norad_id": 38022,
        "name": "IRIDIUM 33 DEB",
        "group": "iridium-33-debris",
        "lat": 53.55747863526948,
        "lon": 19.728445433250805,
        "alt_km": 717.4579689337743,
        "timestamp": "2025-12-16T19:34:24.653804+00:00",
        "meta_object_name": "IRIDIUM 33 DEB",
        "meta_object_id": "1997-051YJ",
        "meta_epoch": "2025-12-12T08:41:14.041248",
        "meta_mean_motion": 14.41246239,
        "meta_eccentricity": 0.00465932,
        "meta_inclination": 86.2691,
        "meta_ra_of_asc_node": 16.6083,
        "meta_arg_of_pericenter": 51.6762,
        "meta_mean_anomaly": 308.8611,
        "meta_ephemeris_type": 0,
        "meta_classification_type": "U",
        "meta_norad_cat_id": 38022,
        "meta_element_set_no": 999,
        "meta_rev_at_epoch": 69188,
        "meta_bstar": 0.001535131,
        "meta_mean_motion_dot": 5.042e-05,
        "meta_mean_motion_ddot": 0,
        "tle_line1": "1 38022U 97051YJ  25346.36196807  .00005042  00000+0  15351-2 0  9994",
        "tle_line2": "2 38022  86.2691  16.6083 0046593  51.6762 308.8611 14.41246239691882"
      },
      "geometry": {
        "type": "Point",
        "coordinates": [
          19.728445433250805,
          53.55747863526948
        ]
      }
    },
    {
      "type": "Feature",
      "properties": {
        "norad_id": 38028,
        "name": "IRIDIUM 33 DEB",
        "group": "iridium-33-debris",
        "lat": -86.25934013773187,
        "lon": -102.09503041885442,
        "alt_km": 766.0873741683299,
        "timestamp": "2025-12-16T19:34:24.653814+00:00",
        "meta_object_name": "IRIDIUM 33 DEB",
        "meta_object_id": "1997-051YQ",
        "meta_epoch": "2025-12-14T18:10:34.836096",
        "meta_mean_motion": 14.46181503,
        "meta_eccentricity": 0.00303806,
        "meta_inclination": 86.3253,
        "meta_ra_of_asc_node": 359.392,
        "meta_arg_of_pericenter": 114.704,
        "meta_mean_anomaly": 245.733,
        "meta_ephemeris_type": 0,
        "meta_classification_type": "U",
        "meta_norad_cat_id": 38028,
        "meta_element_set_no": 999,
        "meta_rev_at_epoch": 65524,
        "meta_bstar": 0.00026010373,
        "meta_mean_motion_dot": 9.55e-06,
        "meta_mean_motion_ddot": 0,
        "tle_line1": "1 38028U 97051YQ  25348.75734764  .00000955  00000+0  26010-3 0  9998",
        "tle_line2": "2 38028  86.3253 359.3920 0030380 114.7040 245.7330 14.46181503655241"
      },
      "geometry": {
        "type": "Point",
        "coordinates": [
          -102.09503041885442,
          -86.25934013773187
        ]
      }
    },
    {
      "type": "Feature",
      "properties": {
        "norad_id": 38228,
        "name": "IRIDIUM 33 DEB",
        "group": "iridium-33-debris",
        "lat": -72.78310092651836,
        "lon": 34.66611238974574,
        "alt_km": 824.3213105977047,
        "timestamp": "2025-12-16T19:34:24.653825+00:00",
        "meta_object_name": "IRIDIUM 33 DEB",
        "meta_object_id": "1997-051ZC",
        "meta_epoch": "2025-12-15T22:37:05.354976",
        "meta_mean_motion": 14.27271769,
        "meta_eccentricity": 0.00646384,
        "meta_inclination": 86.2946,
        "meta_ra_of_asc_node": 47.1084,
        "meta_arg_of_pericenter": 179.0762,
        "meta_mean_anomaly": 303.5549,
        "meta_ephemeris_type": 0,
        "meta_classification_type": "U",
        "meta_norad_cat_id": 38228,
        "meta_element_set_no": 999,
        "meta_rev_at_epoch": 84827,
        "meta_bstar": 0.00027707855,
        "meta_mean_motion_dot": 7.12e-06,
        "meta_mean_motion_ddot": 0,
        "tle_line1": "1 38228U 97051ZC  25349.94242309  .00000712  00000+0  27708-3 0  9997",
        "tle_line2": "2 38228  86.2946  47.1084 0064638 179.0762 303.5549 14.27271769848277"
      },
      "geometry": {
        "type": "Point",
        "coordinates": [
          34.66611238974574,
          -72.78310092651836
        ]
      }
    },
    {
      "type": "Feature",
      "properties": {
        "norad_id": 38241,
        "name": "IRIDIUM 33 DEB",
        "group": "iridium-33-debris",
        "lat": -72.08179232555057,
        "lon": -179.72721837962183,
        "alt_km": 720.9482047405008,
        "timestamp": "2025-12-16T19:34:24.653836+00:00",
        "meta_object_name": "IRIDIUM 33 DEB",
        "meta_object_id": "1997-051ZR",
        "meta_epoch": "2025-12-13T06:13:58.226016",
        "meta_mean_motion": 14.54873749,
        "meta_eccentricity": 0.00056326,
        "meta_inclination": 86.3232,
        "meta_ra_of_asc_node": 350.3699,
        "meta_arg_of_pericenter": 72.2147,
        "meta_mean_anomaly": 287.9674,
        "meta_ephemeris_type": 0,
        "meta_classification_type": "U",
        "meta_norad_cat_id": 38241,
        "meta_element_set_no": 999,
        "meta_rev_at_epoch": 60208,
        "meta_bstar": 0.0012492013,
        "meta_mean_motion_dot": 5.385e-05,
        "meta_mean_motion_ddot": 0,
        "tle_line1": "1 38241U 97051ZR  25347.25970169  .00005385  00000+0  12492-2 0  9990",
        "tle_line2": "2 38241  86.3232 350.3699 0005632  72.2147 287.9674 14.54873749602089"
      },
      "geometry": {
        "type": "Point",
        "coordinates": [
          -179.72721837962183,
          -72.08179232555057
        ]
      }
    }
  ]
}